#dP2025  1  3  0  0  0.00000000      97 __u+U IGS20 FIT  IAC
## 2347 432000.00000000   900.00000000 60678 0.0000000000000
+  119   C06C07C08C09C10C11C12C13C14C16C19C20C21C22C23C24C25
+        C26C27C28C29C30C32C33C34C35C36C37C38C39C40C41C42C43
+        C44C45E02E03E04E05E06E07E08E09E10E11E12E13E14E15E18
+        E19E21E24E25E26E27E29E30E31E33E34E36G01G02G03G04G05
+        G06G07G08G09G10G11G12G13G14G15G16G17G18G19G20G21G22
+        G23G24G25G26G27G28G29G30G31G32J02J03J04R01R02R03R04
+        R05R07R08R09R11R12R14R15R16R17R18R19R20R21R22R24R26
++         7  7  7  7  7  6  6  7  6  7  5  5  6  6  6  5  6
++         5  6  6  6  8  6  5  5  6  5  6  6  6  6  6  5  6
++         6  6  4  4  4  4  4  4  4  4  4  4  4  4  4  4  4
++         4  4  4  4  4  4  4  4  4  4  4  4  3  3  3  3  3
++         3  3  4  3  3  3  3  3  3  4  4  3  3  3  3  3  3
++         3  3  3  3  4  3  4  3  3  5 10 11 10  7  6  7  6
++         6  6  6  7  7  6  6  6  6  6  6  7  8  7  7  6  7
%c M  cc GPS ccc cccc cccc cccc cccc ccccc ccccc ccccc ccccc
%c cc cc ccc ccc cccc cccc cccc cccc ccccc ccccc ccccc ccccc
%f  1.2500000  1.025000000  0.00000000000  0.000000000000000
%f  0.0000000  0.000000000  0.00000000000  0.000000000000000
%i    0    0    0    0      0      0      0      0         0
%i    0    0    0    0      0      0      0      0         0
/* INFORMATION & ANALYSIS CENTER (IAC)            FINAL DATA
/* S/V CLOCKS ARE ALIGNED TO GNSS TIME                      
/* G:C1WC2W R:C1PC2P E:C1XC5X C:C2IC6I J:C1CC2S             
/* PCV:IGS20_2317 OL/AL:FES2004  NONE     YN ORB:CoN CLK:CoN
*  2025 01 03 22 30  0.00000000
PC06  -6495.168675  39971.622368  12376.744387    623.610046
PC07  -8505.017117  26524.712365 -31527.538405    147.559599
PC08 -19249.608994  29419.549331  23106.935741    225.404052
PC09  -2696.444100  42241.368476   4646.657624   -882.243323
PC10   -237.234840  28259.617064 -30836.955319   -372.837503
PC11  18768.520203   7323.195852  19385.703229    320.397351
PC12  15836.668996  22630.593126   4048.888042   -223.465140
PC13 -13781.793403  30176.503406  26037.725165     71.121532
PC14  27794.809642    939.179495   1930.241998   -617.788393
PC16  -7528.246598  39261.982329  14316.103882    -29.349451
PC19 -26449.905495   5170.019164   7310.398213   -964.830583
PC20 -25662.267199  -5927.567434  -9257.690045   -879.495197
PC21   8999.371379  14639.452385  21994.758240   -906.283612
PC22 -12176.335349  14046.269568  20815.329768    222.733167
PC23  13605.972718 -24370.221735    -59.633491   -939.507105
PC24  14129.615145   8296.910064 -22614.119845    707.101349
PC25  19426.841278 -11962.852394 -16102.746206    606.856106
PC26   1091.495935  22800.480415 -16055.177856   -400.628215
PC27 -10670.833964 -25255.114844   5159.577849    418.677264
PC28   2150.058191 -21270.710034  17943.277429    327.345696
PC29 -16889.314952   2659.965333 -22055.508139    384.261964
PC30 -19746.134710 -16474.268973 -10814.364078     70.410948
PC32  -9030.001793 -14584.313134 -22000.039050   -865.877216
PC33  26435.358713  -5282.123824  -7183.840031   -947.183360
PC34  20061.619204  15026.181203  12280.547218    599.767246
PC35  -2069.271705  20932.946544 -18368.628764    163.462426
PC36 -19674.024253  11827.917957  15868.419981    247.122016
PC37   -193.569798 -23061.010804  15731.776847   -900.749672
PC38 -24439.057102  30936.594925  14820.356416    200.832906
PC39  -9409.672076  35880.114647  20335.650849    -10.703405
PC40 -12041.676183  20518.484033 -34804.145154   -112.439428
PC41  13162.038055 -13828.422795 -20294.710146   -883.022619
PC42  24639.166874   7065.166745  11039.208811   -556.741808
PC43  17398.679404  -1770.942723  21743.089262     97.281636
PC44  11541.904539  24868.439326  -5306.575825    700.659716
PC45 -14027.545601  24099.986022    589.614800   -202.027106
PE02  18796.205779 -18755.100294  13091.301342    187.332421
PE03   8541.911804 -14609.268139 -24292.449421   -164.265121
PE04  11882.404229  21787.319675  16137.964821   -123.424472
PE05  23496.528092   1008.478451 -17974.902762   4815.969208
PE06  19882.396742  20478.161075   7847.213613    -66.272014
PE07 -24704.880457 -16289.604768    843.075226   -161.702211
PE08 -11259.978922 -21688.531534 -16711.908641   -394.683343
PE09  24660.892396  16342.727065   -789.329390   -724.691647
PE10   8336.161818  23508.817121  15939.426684   -680.836334
PE11  13325.479322  14076.636222  22374.135313   -116.236745
PE12   2808.898938  28357.948141   8049.413257  -1370.182172
PE13 -13048.002091 -14638.977259 -22156.911138    -28.708347
PE14  -8783.504735 -22285.792646  16340.370108    546.230029
PE15  -2300.222768 -28581.987889  -7311.442609   -148.945045
PE18  -4464.898301  18201.331220 -20601.235031    958.326524
PE19 -10216.075847  13297.589415  24396.836779   1181.985316
PE21 -27685.323966   9266.432915   4853.604359   -638.050828
PE24  20544.343229   6147.780968 -20437.242059  -1192.228119
PE25  27722.036503  -8936.797866  -5306.226067     12.913996
PE26 -16053.319835   8079.063252 -23506.599879   -164.284860
PE27 -20516.171377  -6049.778128  20448.534394   -546.936004
PE29 -23379.597284   -638.961537  18128.903480    -59.128054
PE30  -1470.651345 -17582.738764  23751.334781  -1098.404065
PE31   1360.048010  17583.953215 -23772.227825    -49.158794
PE33  -9811.748588  25253.804002 -11908.423103     16.439637
PE34   9573.093406 -25512.030415  11574.468164   -155.565137
PE36  15964.329655  -7513.606710  23775.622252   -334.106026
PG01  14591.857219 -10342.677066  19642.345398     17.732105
PG02  14046.966613  -8351.356733  21329.865925   -276.418035
PG03  23321.564344 -12516.192626   1089.970785    638.920812
PG04  17929.285731  -4392.638104 -19135.706148    506.405761
PG05 -21980.404123   2099.655459 -14984.411593   -197.975604
PG06  -6016.473061 -23889.801078  -9691.389445    -92.987848
PG07   7070.408619 -23091.775001  -9990.504022    -13.951538
PG08  24167.735168   4035.845629  10674.480414    453.359669
PG09   9722.733186 -11994.550827 -21710.323359    514.450795
PG10   1339.767447  15667.705069  21578.323415   -261.735495
PG11 -12270.763204 -14396.942837 -18626.516580   -752.425325
PG12 -24561.705852   9234.009597   3663.987047   -562.357637
PG13 -22492.152530 -13451.185588   4813.134633    692.300304
PG14   2741.433883 -17711.733942  19573.213956    573.170308
PG15 -24196.728702   -875.911441  10557.880600    247.433315
PG16  19557.043943   4668.904720 -17934.566820    -86.720011
PG17  -5876.516471 -18819.676949  18106.658031    490.406800
PG18  -6065.393711  24334.531889  -8359.572598   -658.993878
PG19 -15444.429784 -19486.901962   9790.146444    581.906386
PG20 -14315.510703  -7288.642115 -21043.441326    367.352091
PG21  15451.505271    -43.799137  22004.793895     99.861017
PG22  -4837.497824 -14728.034529  21965.787637    -90.345895
PG23 -12969.563006  18655.912499  13602.313360    396.800449
PG24 -14734.220305   6224.998870  20687.183956   -467.563663
PG25 -18168.257884  17653.853687  -7871.542837    497.263202
PG26  11005.829924  11733.355179 -21340.240663    -34.077559
PG27  23487.770914  12893.747776    324.809103    -33.498500
PG28   6138.971558  24703.948516  -7594.627825   -526.171030
PG29 -10397.050610  11087.997316 -21833.035635   -550.287599
PG30   -836.970975 -26387.969826    925.646368   -247.013533
PG31  10917.701216  18280.278854 -15891.914263   -218.645489
PG32  11406.868201  18668.689501  15433.957095   -547.979082
PJ02 -35882.134975  17400.912733  -9056.734288     -0.330474
PJ03 -19632.554897  30166.194747 -17161.275062     -0.128703
PJ04 -27566.551050  27398.371562  22305.324170     21.259484
PR01  17802.347443  -5794.019299 -17318.765454    110.018506
PR02    876.278246 -10704.192931 -23087.943476    -38.728740
PR03 -17292.068460 -10288.389430 -15587.526485    114.356000
PR04 -25101.251050  -4476.633056    111.485915    271.112936
PR05 -19673.102231   3769.195158  15787.608100    143.206758
PR07  17602.601117  10281.136487  15413.170976     98.200231
PR08  25184.663780   4178.829565   -233.743777     -6.246596
PR09  -9017.081757  21023.355139 -11359.356437    230.021879
PR11  14264.532592  -1716.925047 -21067.167435      1.633031
PR12  17851.280121 -17127.224446  -6230.947809     49.197493
PR14  -3936.180602 -12235.246662  22034.011995     27.551506
PR15 -15233.079093   3242.012709  20214.313640     72.529601
PR16 -17812.636824  17115.357408   6431.551250     32.179565
PR17 -11300.640861 -21880.373849  -6711.290495    154.336638
PR18 -12888.624180  -9626.421210 -19755.756452    180.143016
PR19  -9186.837952   5397.337272 -23169.287361   -304.274926
PR20   1612.792421  22626.853411 -11693.592486   -124.149098
PR21  10681.992328  22472.620130   5565.867770   -165.140618
PR22  12946.894523   8556.266423  20279.600467    -54.110427
PR24  -2747.579813 -22765.067078  11213.283424    -86.721539
PR26  24974.235172   4878.102408   1666.820937   -132.151012
EOF
